start=new Date('2022-10-02T00:00:00.000Z').valueOf();
sats=[{"ECCENTRICITY":"0.00009730","SITE":"AFETR","EPHEMERIS_TYPE":"0","RCS_SIZE":"LARGE","INCLINATION":"53.2145","MEAN_MOTION_DOT":"-0.00104597","TIME_SYSTEM":"UTC","TLE_LINE1":"1 53847U 22114AF  22274.91667824 -.00104597  00000-0 -74966-3 0  9990","REF_FRAME":"TEME","REV_AT_EPOCH":"130","ELEMENT_SET_NO":"999","DECAY_DATE":null,"PERIOD":"91.532","ARG_OF_PERICENTER":"80.7823","OBJECT_TYPE":"PAYLOAD","MEAN_ELEMENT_THEORY":"SGP4","CLASSIFICATION_TYPE":"U","LAUNCH_DATE":"2022-09-19","MEAN_MOTION_DDOT":"0.0000000000000","COUNTRY_CODE":"US","MEAN_MOTION":"15.73215606","GP_ID":"213980738","RA_OF_ASC_NODE":"195.0637","APOAPSIS":"350.370","SEMIMAJOR_AXIS":"6727.851","OBJECT_ID":"2022-114AF","TLE_LINE2":"2 53847  53.2145 195.0637 0000973  80.7823 119.7660 15.73215606  1307","BSTAR":"-0.00074966000000","OBJECT_NAME":"STARLINK-4777","CENTER_NAME":"EARTH","EPOCH":"2022-10-01T22:00:00.999936","PERIAPSIS":"349.061","FILE":"3588844","MEAN_ANOMALY":"119.7660","NORAD_CAT_ID":"53847"},{"COUNTRY_CODE":"US","MEAN_MOTION_DDOT":"0.0000000000000","GP_ID":"213979983","MEAN_MOTION":"15.73179758","OBJECT_ID":"2022-114AG","SEMIMAJOR_AXIS":"6727.953","TLE_LINE2":"2 53848  53.2146 195.0586 0001077  92.3751 111.1076 15.73179758  1301","BSTAR":"-0.00023629000000","RA_OF_ASC_NODE":"195.0586","APOAPSIS":"350.542","NORAD_CAT_ID":"53848","MEAN_ANOMALY":"111.1076","CENTER_NAME":"EARTH","OBJECT_NAME":"STARLINK-4780","EPOCH":"2022-10-01T22:00:00.999936","PERIAPSIS":"349.093","FILE":"3588844","RCS_SIZE":"LARGE","ECCENTRICITY":"0.00010770","SITE":"AFETR","EPHEMERIS_TYPE":"0","TIME_SYSTEM":"UTC","TLE_LINE1":"1 53848U 22114AG  22274.91667824 -.00033619  00000-0 -23629-3 0  9997","INCLINATION":"53.2146","MEAN_MOTION_DOT":"-0.00033619","REV_AT_EPOCH":"130","ELEMENT_SET_NO":"999","DECAY_DATE":null,"ARG_OF_PERICENTER":"92.3751","PERIOD":"91.534","REF_FRAME":"TEME","CLASSIFICATION_TYPE":"U","LAUNCH_DATE":"2022-09-19","OBJECT_TYPE":"PAYLOAD","MEAN_ELEMENT_THEORY":"SGP4"},{"APOAPSIS":"350.736","RA_OF_ASC_NODE":"195.0648","OBJECT_ID":"2022-114AH","SEMIMAJOR_AXIS":"6727.975","TLE_LINE2":"2 53849  53.2154 195.0648 0001332  83.2645 118.4204 15.73172036  1300","BSTAR":"-0.00049652000000","EPOCH":"2022-10-01T22:00:00.999936","OBJECT_NAME":"STARLINK-4770","CENTER_NAME":"EARTH","FILE":"3588844","PERIAPSIS":"348.944","NORAD_CAT_ID":"53849","MEAN_ANOMALY":"118.4204","MEAN_MOTION_DDOT":"0.0000000000000","COUNTRY_CODE":"US","MEAN_MOTION":"15.73172036","GP_ID":"213980569","REF_FRAME":"TEME","ELEMENT_SET_NO":"999","REV_AT_EPOCH":"130","PERIOD":"91.535","ARG_OF_PERICENTER":"83.2645","DECAY_DATE":null,"OBJECT_TYPE":"PAYLOAD","MEAN_ELEMENT_THEORY":"SGP4","CLASSIFICATION_TYPE":"U","LAUNCH_DATE":"2022-09-19","ECCENTRICITY":"0.00013320","SITE":"AFETR","EPHEMERIS_TYPE":"0","RCS_SIZE":"LARGE","MEAN_MOTION_DOT":"-0.00069646","INCLINATION":"53.2154","TIME_SYSTEM":"UTC","TLE_LINE1":"1 53849U 22114AH  22274.91667824 -.00069646  00000-0 -49652-3 0  9991"},{"APOAPSIS":"350.686","RA_OF_ASC_NODE":"195.0550","OBJECT_ID":"2022-114AJ","SEMIMAJOR_AXIS":"6727.937","TLE_LINE2":"2 53850  53.2145 195.0550 0001314  79.2404 126.0170 15.73185248  1308","BSTAR":"-0.00050602000000","EPOCH":"2022-10-01T22:00:00.999936","CENTER_NAME":"EARTH","OBJECT_NAME":"STARLINK-4767","FILE":"3588844","PERIAPSIS":"348.918","NORAD_CAT_ID":"53850","MEAN_ANOMALY":"126.0170","MEAN_MOTION_DDOT":"0.0000000000000","COUNTRY_CODE":"US","MEAN_MOTION":"15.73185248","GP_ID":"213980907","REF_FRAME":"TEME","ELEMENT_SET_NO":"999","REV_AT_EPOCH":"130","ARG_OF_PERICENTER":"79.2404","PERIOD":"91.534","DECAY_DATE":null,"OBJECT_TYPE":"PAYLOAD","MEAN_ELEMENT_THEORY":"SGP4","CLASSIFICATION_TYPE":"U","LAUNCH_DATE":"2022-09-19","ECCENTRICITY":"0.00013140","SITE":"AFETR","EPHEMERIS_TYPE":"0","RCS_SIZE":"LARGE","MEAN_MOTION_DOT":"-0.00070995","INCLINATION":"53.2145","TIME_SYSTEM":"UTC","TLE_LINE1":"1 53850U 22114AJ  22274.91667824 -.00070995  00000-0 -50602-3 0  9999"},{"MEAN_ELEMENT_THEORY":"SGP4","OBJECT_TYPE":"PAYLOAD","LAUNCH_DATE":"2022-09-19","CLASSIFICATION_TYPE":"U","REF_FRAME":"TEME","DECAY_DATE":null,"PERIOD":"91.533","ARG_OF_PERICENTER":"98.2835","REV_AT_EPOCH":"130","ELEMENT_SET_NO":"999","MEAN_MOTION_DOT":"-0.00092521","INCLINATION":"53.2146","TLE_LINE1":"1 53851U 22114AK  22274.91667824 -.00092521  00000-0 -66186-3 0  9993","TIME_SYSTEM":"UTC","EPHEMERIS_TYPE":"0","SITE":"AFETR","ECCENTRICITY":"0.00011210","RCS_SIZE":"LARGE","PERIAPSIS":"348.984","FILE":"3588844","OBJECT_NAME":"STARLINK-4755","CENTER_NAME":"EARTH","EPOCH":"2022-10-01T22:00:00.999936","NORAD_CAT_ID":"53851","MEAN_ANOMALY":"104.6304","RA_OF_ASC_NODE":"195.0602","APOAPSIS":"350.493","BSTAR":"-0.00066186000000","TLE_LINE2":"2 53851  53.2146 195.0602 0001121  98.2835 104.6304 15.73207656  1302","OBJECT_ID":"2022-114AK","SEMIMAJOR_AXIS":"6727.873","MEAN_MOTION":"15.73207656","GP_ID":"213980994","MEAN_MOTION_DDOT":"0.0000000000000","COUNTRY_CODE":"US"},{"MEAN_ELEMENT_THEORY":"SGP4","OBJECT_TYPE":"PAYLOAD","LAUNCH_DATE":"2022-09-19","CLASSIFICATION_TYPE":"U","REF_FRAME":"TEME","DECAY_DATE":null,"PERIOD":"91.532","ARG_OF_PERICENTER":"87.3098","REV_AT_EPOCH":"130","ELEMENT_SET_NO":"999","MEAN_MOTION_DOT":"-0.00093584","INCLINATION":"53.2150","TLE_LINE1":"1 53852U 22114AL  22274.91667824 -.00093584  00000-0 -66942-3 0  9994","TIME_SYSTEM":"UTC","EPHEMERIS_TYPE":"0","SITE":"AFETR","ECCENTRICITY":"0.00011720","RCS_SIZE":"LARGE","PERIAPSIS":"348.932","FILE":"3588844","OBJECT_NAME":"STARLINK-4797","CENTER_NAME":"EARTH","EPOCH":"2022-10-01T22:00:00.999936","MEAN_ANOMALY":"119.2047","NORAD_CAT_ID":"53852","RA_OF_ASC_NODE":"195.0541","APOAPSIS":"350.509","TLE_LINE2":"2 53852  53.2150 195.0541 0001172  87.3098 119.2047 15.73213848  1302","BSTAR":"-0.00066942000000","SEMIMAJOR_AXIS":"6727.856","OBJECT_ID":"2022-114AL","MEAN_MOTION":"15.73213848","GP_ID":"213980401","MEAN_MOTION_DDOT":"0.0000000000000","COUNTRY_CODE":"US"},{"REF_FRAME":"TEME","REV_AT_EPOCH":"130","ELEMENT_SET_NO":"999","DECAY_DATE":null,"ARG_OF_PERICENTER":"86.6624","PERIOD":"91.532","OBJECT_TYPE":"PAYLOAD","MEAN_ELEMENT_THEORY":"SGP4","CLASSIFICATION_TYPE":"U","LAUNCH_DATE":"2022-09-19","ECCENTRICITY":"0.00010920","EPHEMERIS_TYPE":"0","SITE":"AFETR","RCS_SIZE":"LARGE","INCLINATION":"53.2157","MEAN_MOTION_DOT":"-0.00092813","TIME_SYSTEM":"UTC","TLE_LINE1":"1 53853U 22114AM  22274.91667824 -.00092813  00000-0 -66383-3 0  9998","RA_OF_ASC_NODE":"195.0609","APOAPSIS":"350.457","SEMIMAJOR_AXIS":"6727.858","OBJECT_ID":"2022-114AM","TLE_LINE2":"2 53853  53.2157 195.0609 0001092  86.6624 117.4311 15.73213199  1306","BSTAR":"-0.00066383000000","OBJECT_NAME":"STARLINK-4794","CENTER_NAME":"EARTH","EPOCH":"2022-10-01T22:00:00.999936","PERIAPSIS":"348.988","FILE":"3588844","MEAN_ANOMALY":"117.4311","NORAD_CAT_ID":"53853","MEAN_MOTION_DDOT":"0.0000000000000","COUNTRY_CODE":"US","MEAN_MOTION":"15.73213199","GP_ID":"213980153"},{"COUNTRY_CODE":"US","MEAN_MOTION_DDOT":"0.0000000000000","GP_ID":"213981162","MEAN_MOTION":"15.73206844","TLE_LINE2":"2 53854  53.2153 195.0531 0001234  88.8597 118.7893 15.73206844  1306","BSTAR":"-0.00049764000000","OBJECT_ID":"2022-114AN","SEMIMAJOR_AXIS":"6727.876","RA_OF_ASC_NODE":"195.0531","APOAPSIS":"350.571","MEAN_ANOMALY":"118.7893","NORAD_CAT_ID":"53854","PERIAPSIS":"348.910","FILE":"3588844","CENTER_NAME":"EARTH","OBJECT_NAME":"STARLINK-4800","EPOCH":"2022-10-01T22:00:00.999936","RCS_SIZE":"LARGE","EPHEMERIS_TYPE":"0","SITE":"AFETR","ECCENTRICITY":"0.00012340","TLE_LINE1":"1 53854U 22114AN  22274.91667824 -.00069902  00000-0 -49764-3 0  9996","TIME_SYSTEM":"UTC","INCLINATION":"53.2153","MEAN_MOTION_DOT":"-0.00069902","DECAY_DATE":null,"PERIOD":"91.533","ARG_OF_PERICENTER":"88.8597","REV_AT_EPOCH":"130","ELEMENT_SET_NO":"999","REF_FRAME":"TEME","LAUNCH_DATE":"2022-09-19","CLASSIFICATION_TYPE":"U","MEAN_ELEMENT_THEORY":"SGP4","OBJECT_TYPE":"PAYLOAD"},{"TLE_LINE2":"2 53855  53.2142 195.0549 0001015  88.3753 116.2980 15.73214729  1301","BSTAR":"-0.00071651000000","OBJECT_ID":"2022-114AP","SEMIMAJOR_AXIS":"6727.853","APOAPSIS":"350.401","RA_OF_ASC_NODE":"195.0549","NORAD_CAT_ID":"53855","MEAN_ANOMALY":"116.2980","FILE":"3588844","PERIAPSIS":"349.035","EPOCH":"2022-10-01T22:00:00.999936","OBJECT_NAME":"STARLINK-4703","CENTER_NAME":"EARTH","COUNTRY_CODE":"US","MEAN_MOTION_DDOT":"0.0000000000000","GP_ID":"213980739","MEAN_MOTION":"15.73214729","PERIOD":"91.532","ARG_OF_PERICENTER":"88.3753","DECAY_DATE":null,"ELEMENT_SET_NO":"999","REV_AT_EPOCH":"130","REF_FRAME":"TEME","LAUNCH_DATE":"2022-09-19","CLASSIFICATION_TYPE":"U","MEAN_ELEMENT_THEORY":"SGP4","OBJECT_TYPE":"PAYLOAD","RCS_SIZE":"LARGE","SITE":"AFETR","EPHEMERIS_TYPE":"0","ECCENTRICITY":"0.00010150","TLE_LINE1":"1 53855U 22114AP  22274.91667824 -.00100049  00000-0 -71651-3 0  9995","TIME_SYSTEM":"UTC","INCLINATION":"53.2142","MEAN_MOTION_DOT":"-0.00100049"},{"MEAN_ANOMALY":"117.2399","NORAD_CAT_ID":"53856","OBJECT_NAME":"STARLINK-4795","CENTER_NAME":"EARTH","EPOCH":"2022-10-01T22:00:00.999936","PERIAPSIS":"348.981","FILE":"3588844","SEMIMAJOR_AXIS":"6727.873","OBJECT_ID":"2022-114AQ","BSTAR":"-0.00063166000000","TLE_LINE2":"2 53856  53.2141 195.0431 0001125  93.4734 117.2399 15.73207734  1302","RA_OF_ASC_NODE":"195.0431","APOAPSIS":"350.495","GP_ID":"213979984","MEAN_MOTION":"15.73207734","COUNTRY_CODE":"US","MEAN_MOTION_DDOT":"0.0000000000000","CLASSIFICATION_TYPE":"U","LAUNCH_DATE":"2022-09-19","OBJECT_TYPE":"PAYLOAD","MEAN_ELEMENT_THEORY":"SGP4","REV_AT_EPOCH":"130","ELEMENT_SET_NO":"999","DECAY_DATE":null,"ARG_OF_PERICENTER":"93.4734","PERIOD":"91.533","REF_FRAME":"TEME","TIME_SYSTEM":"UTC","TLE_LINE1":"1 53856U 22114AQ  22274.91667824 -.00088371  00000-0 -63166-3 0  9991","INCLINATION":"53.2141","MEAN_MOTION_DOT":"-0.00088371","RCS_SIZE":"LARGE","ECCENTRICITY":"0.00011250","SITE":"AFETR","EPHEMERIS_TYPE":"0"}];
